*******************************************************************************
Ephemeris / WWW_USER Thu May 23 08:24:11 2024 Pasadena, USA      / Horizons    
*******************************************************************************
Target body name: (2018 RP1)                      {source: JPL#4}
Center body name: Earth (399)                     {source: DE441}
Center-site name: Gemini South Obs., Cerro Pachon
*******************************************************************************
Start time      : A.D. 2018-Oct-02 22:53:00.0000 UT      
Stop  time      : A.D. 2018-Oct-03 10:10:00.0000 UT      
Step-size       : 1 minutes
*******************************************************************************
Target pole/equ : undefined
Target radii    : undefined                                                    
Center geodetic : 289.2634, -30.2406227, 2.71233  {E-lon(deg),Lat(deg),Alt(km)}
Center cylindric: 289.2634,5517.21435,-3194.81213 {E-lon(deg),Dxy(km),Dz(km)}
Center pole/equ : ITRF93                          {East-longitude positive}
Center radii    : 6378.137, 6378.137, 6356.752 km {Equator_a, b, pole_c}       
Target primary  : Sun
Vis. interferer : MOON (R_eq= 1737.400) km        {source: DE441}
Rel. light bend : Sun                             {source: DE441}
Rel. lght bnd GM: 1.3271E+11 km^3/s^2                                          
Small-body perts: Yes                             {source: SB441-N16}
Atmos refraction: NO (AIRLESS)
RA format       : HMS
Time format     : CAL 
Calendar mode   : Mixed Julian/Gregorian
RTS-only print  : NO       
EOP file        : eop.240522.p240815                                           
EOP coverage    : DATA-BASED 1962-JAN-20 TO 2024-MAY-22. PREDICTS-> 2024-AUG-14
Units conversion: 1 au= 149597870.700 km, c= 299792.458 km/s, 1 day= 86400.0 s 
Table cut-offs 1: Elevation (-90.0deg=NO ),Airmass (>38.000=NO), Daylight (YES)
Table cut-offs 2: Solar elongation (  0.0,180.0=NO ),Local Hour Angle( 0.0=NO )
Table cut-offs 3: RA/DEC angular rate (     0.0=NO )                           
*******************************************************************************
Initial IAU76/J2000 heliocentric ecliptic osculating elements (au, days, deg.):
  EPOCH=  2458376.5 ! 2018-Sep-15.00 (TDB)         Residual RMS= .12525        
   EC= .3382936082205208   QR= .9576766169446216   TP= 2458412.3293739939      
   OM= 161.903422202901    W=  234.5704247756858   IN= 9.466091569921099       
  Equivalent ICRF heliocentric cartesian coordinates (au, au/d):
   X= 1.017940821946709E+00  Y=-7.278189102440286E-02  Z=-7.249995171787897E-02
  VX=-1.754817228708964E-03 VY= 1.862872143473751E-02 VZ= 4.887370356508847E-03
Asteroid physical parameters (km, seconds, rotational period in hours):        
   GM= n.a.                RAD= n.a.               ROTPER= n.a.                
   H= 24.3                 G= .150                 B-V= n.a.                   
                           ALBEDO= n.a.            STYP= n.a.                  
*******************************************************************************
 Date__(UT)__HR:MN     R.A._________(ICRF)_________DEC
******************************************************
$$SOE
 2018-Oct-03 00:56     07 35 02.748910 -21 55 46.83885
 2018-Oct-03 00:57     07 35 02.972463 -21 55 46.97560
 2018-Oct-03 00:58     07 35 03.195978 -21 55 47.11272
 2018-Oct-03 00:59     07 35 03.419454 -21 55 47.25022
 2018-Oct-03 01:00     07 35 03.642892 -21 55 47.38808
 2018-Oct-03 01:01     07 35 03.866291 -21 55 47.52631
 2018-Oct-03 01:02     07 35 04.089650 -21 55 47.66490
 2018-Oct-03 01:03     07 35 04.312969 -21 55 47.80386
 2018-Oct-03 01:04     07 35 04.536249 -21 55 47.94319
 2018-Oct-03 01:05     07 35 04.759488 -21 55 48.08288
 2018-Oct-03 01:06     07 35 04.982686 -21 55 48.22294
 2018-Oct-03 01:07     07 35 05.205844 -21 55 48.36336
 2018-Oct-03 01:08     07 35 05.428960 -21 55 48.50414
 2018-Oct-03 01:09     07 35 05.652034 -21 55 48.64529
 2018-Oct-03 01:10     07 35 05.875067 -21 55 48.78679
 2018-Oct-03 01:11     07 35 06.098057 -21 55 48.92866
 2018-Oct-03 01:12     07 35 06.321004 -21 55 49.07088
 2018-Oct-03 01:13     07 35 06.543909 -21 55 49.21347
 2018-Oct-03 01:14     07 35 06.766770 -21 55 49.35641
 2018-Oct-03 01:15     07 35 06.989588 -21 55 49.49971
 2018-Oct-03 01:16     07 35 07.212362 -21 55 49.64337
 2018-Oct-03 01:17     07 35 07.435092 -21 55 49.78738
 2018-Oct-03 01:18     07 35 07.657777 -21 55 49.93175
 2018-Oct-03 01:19     07 35 07.880418 -21 55 50.07647
 2018-Oct-03 01:20     07 35 08.103013 -21 55 50.22154
 2018-Oct-03 01:21     07 35 08.325563 -21 55 50.36697
 2018-Oct-03 01:22     07 35 08.548068 -21 55 50.51275
 2018-Oct-03 01:23     07 35 08.770526 -21 55 50.65887
 2018-Oct-03 01:24     07 35 08.992938 -21 55 50.80535
 2018-Oct-03 01:25     07 35 09.215303 -21 55 50.95218
 2018-Oct-03 01:26     07 35 09.437621 -21 55 51.09935
 2018-Oct-03 01:27     07 35 09.659892 -21 55 51.24688
 2018-Oct-03 01:28     07 35 09.882116 -21 55 51.39475
 2018-Oct-03 01:29     07 35 10.104291 -21 55 51.54296
 2018-Oct-03 01:30     07 35 10.326419 -21 55 51.69152
 2018-Oct-03 01:31     07 35 10.548498 -21 55 51.84042
 2018-Oct-03 01:32     07 35 10.770528 -21 55 51.98966
 2018-Oct-03 01:33     07 35 10.992509 -21 55 52.13925
 2018-Oct-03 01:34     07 35 11.214440 -21 55 52.28918
 2018-Oct-03 01:35     07 35 11.436322 -21 55 52.43944
 2018-Oct-03 01:36     07 35 11.658154 -21 55 52.59005
 2018-Oct-03 01:37     07 35 11.879936 -21 55 52.74099
 2018-Oct-03 01:38     07 35 12.101667 -21 55 52.89228
 2018-Oct-03 01:39     07 35 12.323347 -21 55 53.04389
 2018-Oct-03 01:40     07 35 12.544977 -21 55 53.19584
 2018-Oct-03 01:41     07 35 12.766554 -21 55 53.34813
 2018-Oct-03 01:42     07 35 12.988080 -21 55 53.50075
 2018-Oct-03 01:43     07 35 13.209554 -21 55 53.65370
 2018-Oct-03 01:44     07 35 13.430975 -21 55 53.80698
 2018-Oct-03 01:45     07 35 13.652344 -21 55 53.96060
 2018-Oct-03 01:46     07 35 13.873660 -21 55 54.11454
 2018-Oct-03 01:47     07 35 14.094923 -21 55 54.26881
 2018-Oct-03 01:48     07 35 14.316132 -21 55 54.42340
 2018-Oct-03 01:49     07 35 14.537287 -21 55 54.57833
 2018-Oct-03 01:50     07 35 14.758388 -21 55 54.73358
 2018-Oct-03 01:51     07 35 14.979435 -21 55 54.88915
 2018-Oct-03 01:52     07 35 15.200428 -21 55 55.04504
 2018-Oct-03 01:53     07 35 15.421365 -21 55 55.20126
 2018-Oct-03 01:54     07 35 15.642247 -21 55 55.35780
 2018-Oct-03 01:55     07 35 15.863074 -21 55 55.51465
 2018-Oct-03 01:56     07 35 16.083844 -21 55 55.67183
 2018-Oct-03 01:57     07 35 16.304559 -21 55 55.82932
 2018-Oct-03 01:58     07 35 16.525218 -21 55 55.98713
 2018-Oct-03 01:59     07 35 16.745819 -21 55 56.14526
 2018-Oct-03 02:00     07 35 16.966364 -21 55 56.30370
 2018-Oct-03 02:01     07 35 17.186852 -21 55 56.46245
 2018-Oct-03 02:02     07 35 17.407282 -21 55 56.62151
 2018-Oct-03 02:03     07 35 17.627655 -21 55 56.78089
 2018-Oct-03 02:04     07 35 17.847969 -21 55 56.94058
 2018-Oct-03 02:05     07 35 18.068225 -21 55 57.10057
 2018-Oct-03 02:06     07 35 18.288423 -21 55 57.26087
 2018-Oct-03 02:07     07 35 18.508562 -21 55 57.42148
 2018-Oct-03 02:08     07 35 18.728642 -21 55 57.58239
 2018-Oct-03 02:09     07 35 18.948662 -21 55 57.74361
 2018-Oct-03 02:10     07 35 19.168623 -21 55 57.90513
 2018-Oct-03 02:11     07 35 19.388524 -21 55 58.06695
 2018-Oct-03 02:12     07 35 19.608364 -21 55 58.22908
 2018-Oct-03 02:13     07 35 19.828144 -21 55 58.39150
 2018-Oct-03 02:14     07 35 20.047864 -21 55 58.55422
 2018-Oct-03 02:15     07 35 20.267523 -21 55 58.71724
 2018-Oct-03 02:16     07 35 20.487120 -21 55 58.88055
 2018-Oct-03 02:17     07 35 20.706656 -21 55 59.04416
 2018-Oct-03 02:18     07 35 20.926130 -21 55 59.20806
 2018-Oct-03 02:19     07 35 21.145542 -21 55 59.37225
 2018-Oct-03 02:20     07 35 21.364892 -21 55 59.53674
 2018-Oct-03 02:21     07 35 21.584179 -21 55 59.70151
 2018-Oct-03 02:22     07 35 21.803404 -21 55 59.86658
 2018-Oct-03 02:23     07 35 22.022566 -21 56 00.03193
 2018-Oct-03 02:24     07 35 22.241664 -21 56 00.19756
 2018-Oct-03 02:25     07 35 22.460698 -21 56 00.36348
 2018-Oct-03 02:26     07 35 22.679669 -21 56 00.52969
 2018-Oct-03 02:27     07 35 22.898576 -21 56 00.69617
 2018-Oct-03 02:28     07 35 23.117419 -21 56 00.86294
 2018-Oct-03 02:29     07 35 23.336197 -21 56 01.02999
 2018-Oct-03 02:30     07 35 23.554910 -21 56 01.19732
 2018-Oct-03 02:31     07 35 23.773559 -21 56 01.36492
 2018-Oct-03 02:32     07 35 23.992142 -21 56 01.53280
 2018-Oct-03 02:33     07 35 24.210659 -21 56 01.70095
 2018-Oct-03 02:34     07 35 24.429111 -21 56 01.86938
 2018-Oct-03 02:35     07 35 24.647496 -21 56 02.03808
 2018-Oct-03 02:36     07 35 24.865816 -21 56 02.20705
 2018-Oct-03 02:37     07 35 25.084069 -21 56 02.37628
 2018-Oct-03 02:38     07 35 25.302255 -21 56 02.54579
 2018-Oct-03 02:39     07 35 25.520374 -21 56 02.71556
 2018-Oct-03 02:40     07 35 25.738426 -21 56 02.88560
 2018-Oct-03 02:41     07 35 25.956411 -21 56 03.05591
 2018-Oct-03 02:42     07 35 26.174328 -21 56 03.22647
 2018-Oct-03 02:43     07 35 26.392177 -21 56 03.39730
 2018-Oct-03 02:44     07 35 26.609957 -21 56 03.56838
 2018-Oct-03 02:45     07 35 26.827670 -21 56 03.73973
 2018-Oct-03 02:46     07 35 27.045314 -21 56 03.91133
 2018-Oct-03 02:47     07 35 27.262889 -21 56 04.08319
 2018-Oct-03 02:48     07 35 27.480395 -21 56 04.25530
 2018-Oct-03 02:49     07 35 27.697832 -21 56 04.42767
 2018-Oct-03 02:50     07 35 27.915199 -21 56 04.60029
 2018-Oct-03 02:51     07 35 28.132496 -21 56 04.77315
 2018-Oct-03 02:52     07 35 28.349724 -21 56 04.94627
 2018-Oct-03 02:53     07 35 28.566881 -21 56 05.11963
 2018-Oct-03 02:54     07 35 28.783968 -21 56 05.29324
 2018-Oct-03 02:55     07 35 29.000984 -21 56 05.46710
 2018-Oct-03 02:56     07 35 29.217930 -21 56 05.64120
 2018-Oct-03 02:57     07 35 29.434804 -21 56 05.81554
 2018-Oct-03 02:58     07 35 29.651608 -21 56 05.99012
